0 COSMOS 2251 DEB
1 34344U 93036PS  13281.56506225  .00001359  00000-0  85019-3 0  9696
2 34344 073.9899 328.1412 0186185 039.9526 081.7384 13.97368388236658
0 COSMOS 2251 DEB
1 34344U 93036PS  13283.91631243  .00001794  00000-0  11177-2 0  9704
2 34344 073.9896 324.0766 0186268 035.3167 029.8660 13.97376574236987
0 COSMOS 2251 DEB
1 34344U 93036PS  13286.50363850  .00001473  00000-0  91991-3 0  9716
2 34344 073.9893 319.6037 0186411 030.2189 085.6460 13.97386047237348
0 COSMOS 2251 DEB
1 34344U 93036PS  13288.51475308  .00002303  00000-0  14294-2 0  9725
2 34344 073.9892 316.1266 0186534 026.2797 122.7874 13.97393739237628
0 COSMOS 2251 DEB
1 34344U 93036PS  13290.52000166  .00002174  00000-0  13496-2 0  9735
2 34344 073.9891 312.6596 0186684 022.3518 130.4786 13.97400720237906
0 COSMOS 2251 DEB
1 34344U 93036PS  13292.52734515  .00002245  00000-0  13931-2 0  9743
2 34344 073.9893 309.1887 0186817 018.4324 148.7427 13.97409003238189
0 COSMOS 2251 DEB
1 34344U 93036PS  13294.79550353  .00002741  00000-0  16968-2 0  9755
2 34344 073.9901 305.2688 0186822 014.0113 039.1504 13.97420204238498
